[{"OBJECT_NAME":"STARLINK-36479","OBJECT_ID":"2026-003U","EPOCH":"2026-03-09T11:03:24.547392","MEAN_MOTION":15.27597927,"ECCENTRICITY":2.488e-5,"INCLINATION":42.9952,"RA_OF_ASC_NODE":227.9371,"ARG_OF_PERICENTER":253.6948,"MEAN_ANOMALY":106.3876,"EPHEMERIS_TYPE":0,"CLASSIFICATION_TYPE":"U","NORAD_CAT_ID":67352,"ELEMENT_SET_NO":999,"REV_AT_EPOCH":879,"BSTAR":0.00098665614,"MEAN_MOTION_DOT":0.00027003,"MEAN_MOTION_DDOT":0},{"OBJECT_NAME":"COSMOS 2251 DEB","OBJECT_ID":"1993-036BXP","EPOCH":"2026-03-04T07:23:49.847712","MEAN_MOTION":15.24789556,"ECCENTRICITY":0.00190834,"INCLINATION":73.9759,"RA_OF_ASC_NODE":64.3004,"ARG_OF_PERICENTER":239.4537,"MEAN_ANOMALY":120.4779,"EPHEMERIS_TYPE":0,"CLASSIFICATION_TYPE":"U","NORAD_CAT_ID":47059,"ELEMENT_SET_NO":999,"REV_AT_EPOCH":9543,"BSTAR":0.0048704033,"MEAN_MOTION_DOT":0.00123422,"MEAN_MOTION_DDOT":0}]
